GLOBALSTAR M023 [+]     
1 25621U 99004A   23358.93931625 -.00000204  00000+0 -55861-3 0  9992
2 25621  52.0110 258.4236 0010563  15.5107  66.3105 12.62442627147493
GLOBALSTAR M040 [-]     
1 25622U 99004B   23358.94363365 -.00000080  00000+0  13059-3 0  9998
2 25622  51.9920 261.7757 0000618  11.8977  69.8201 12.61962736147043
GLOBALSTAR M036 [-]     
1 25623U 99004C   23358.82709036 -.00000098  00000+0 -21664-3 0  9996
2 25623  51.9948 224.5370 0012430  95.9492 345.7354 11.86557774114836
GLOBALSTAR M038 [-]     
1 25624U 99004D   23358.92749963 -.00000036  00000+0  48867-3 0  9996
2 25624  51.9944 187.4043 0002253  42.3847 105.3766 12.32490323135758
GLOBALSTAR M022 [-]     
1 25649U 99012A   23358.93005758 -.00000049  00000+0  45864-3 0  9998
2 25649  52.0066 319.5346 0002253 171.9131 202.4700 12.02474777111383
GLOBALSTAR M041 [-]     
1 25650U 99012B   23358.79263143 -.00000032  00000+0  69288-3 0  9996
2 25650  51.9986 184.8839 0001863   6.5994 353.4867 11.96651585113581
GLOBALSTAR M046 [-]     
1 25651U 99012C   23358.27282295 -.00000161  00000+0 -79851-3 0  9990
2 25651  52.0078 291.1964 0001578 263.7505 262.5726 12.09381683118218
GLOBALSTAR M037 [+]     
1 25652U 99012D   23358.51723267 -.00000043  00000+0  34144-3 0  9991
2 25652  52.0022  30.5339 0002057  78.5342  86.2993 12.62391986142987
